[{"OBJECT_NAME":"STARLINK-4183","OBJECT_ID":"2022-076AE","EPOCH":"2026-03-09T10:38:59.720064","MEAN_MOTION":15.0884146,"ECCENTRICITY":0.00013138,"INCLINATION":53.2165,"RA_OF_ASC_NODE":85.2243,"ARG_OF_PERICENTER":83.7669,"MEAN_ANOMALY":276.3472,"EPHEMERIS_TYPE":0,"CLASSIFICATION_TYPE":"U","NORAD_CAT_ID":53014,"ELEMENT_SET_NO":999,"REV_AT_EPOCH":20294,"BSTAR":-3.888561e-6,"MEAN_MOTION_DOT":-3.5e-6,"MEAN_MOTION_DDOT":0},{"OBJECT_NAME":"DISKSAT C","OBJECT_ID":"2025-305A","EPOCH":"2026-03-09T19:16:32.318976","MEAN_MOTION":15.07852977,"ECCENTRICITY":0.00045341,"INCLINATION":45.0017,"RA_OF_ASC_NODE":250.1278,"ARG_OF_PERICENTER":310.7706,"MEAN_ANOMALY":49.2776,"EPHEMERIS_TYPE":0,"CLASSIFICATION_TYPE":"U","NORAD_CAT_ID":67219,"ELEMENT_SET_NO":999,"REV_AT_EPOCH":1231,"BSTAR":0.00075564202,"MEAN_MOTION_DOT":0.00011541,"MEAN_MOTION_DDOT":0}]
